NORAD_CAT_ID,OBJECT_NAME,OBJECT_TYPE,EPOCH,MEAN_MOTION,ECCENTRICITY,INCLINATION,RA_OF_ASC_NODE,ARG_OF_PERICENTER,MEAN_ANOMALY,BSTAR,MEAN_MOTION_DOT,MEAN_MOTION_DDOT,TLE_LINE0,TLE_LINE1,TLE_LINE2,SEMIMAJOR_AXIS,PERIOD,APOGEE,PERIGEE,DECAYED
53775.0,STARLINK-4722,PAYLOAD,2023-02-28 01:57:55,15.08833982,0.0001491,53.2185,197.622,103.7155,256.4004,-5.5338e-05,-1.168e-05,0.0,0 STARLINK-4722,1 53775U 22111C   23059.08189792 -.00001168  00000-0 -55338-4 0  9993,2 53775  53.2185 197.6220 0001491 103.7155 256.4004 15.08833982 25978,6917.899,95.438,540.795,538.732,0.0
53775.0,STARLINK-4722,PAYLOAD,2023-02-28 13:05:37,15.08842774,0.000151,53.2189,195.5415,114.5392,245.5758,-0.0001228,-2.242e-05,0.0,0 STARLINK-4722,1 53775U 22111C   23059.54557559 -.00002242  00000-0 -12280-3 0  9996,2 53775  53.2189 195.5415 0001510 114.5392 245.5758 15.08842774 26852,6917.872,95.437,540.782,538.692,0.0
53775.0,STARLINK-4722,PAYLOAD,2023-02-28 16:16:23,15.08846474,0.0001484,53.2186,194.9476,118.6982,241.4159,-8.5869e-05,-1.655e-05,0.0,0 STARLINK-4722,1 53775U 22111C   23059.67805125 -.00001655  00000-0 -85869-4 0  9996,2 53775  53.2186 194.9476 0001484 118.6982 241.4159 15.08846474 26063,6917.861,95.437,540.752,538.699,0.0
53775.0,STARLINK-4722,PAYLOAD,2023-02-28 19:27:09,15.08852717,0.0001043,53.2172,194.3493,98.8951,261.216,-3.7687e-05,-8.88e-06,0.0,0 STARLINK-4722,1 53775U 22111C   23059.81052407 -.00000888  00000-0 -37687-4 0  9991,2 53775  53.2172 194.3493 0001043  98.8951 261.2160 15.08852717 26897,6917.842,95.437,540.428,538.985,0.0
53775.0,STARLINK-4722,PAYLOAD,2023-03-01 01:48:43,15.08837768,0.000145,53.2183,193.1585,84.1983,275.9174,-0.00019461,-3.384e-05,0.0,0 STARLINK-4722,1 53775U 22111C   23060.07550039 -.00003384  00000-0 -19461-3 0  9998,2 53775  53.2183 193.1585 0001450  84.1983 275.9174 15.08837768 26125,6917.887,95.438,540.755,538.749,0.0
53775.0,STARLINK-4722,PAYLOAD,2023-03-01 12:56:26,15.08819896,0.0001806,53.2178,191.0791,93.3713,266.7485,-0.0001141,-2.103e-05,0.0,0 STARLINK-4722,1 53775U 22111C   23060.53919464 -.00002103  00000-0 -11410-3 0  9994,2 53775  53.2178 191.0791 0001806  93.3713 266.7485 15.08819896 26195,6917.942,95.439,541.056,538.557,0.0
53775.0,STARLINK-4722,PAYLOAD,2023-03-01 20:53:21,15.08828118,0.0001966,53.2176,189.5898,84.3315,275.7901,-8.0728e-05,-1.572e-05,0.0,0 STARLINK-4722,1 53775U 22111C   23060.87039201 -.00001572  00000-0 -80728-4 0  9991,2 53775  53.2176 189.5898 0001966  84.3315 275.7901 15.08828118 27054,6917.917,95.438,541.142,538.422,0.0
53775.0,STARLINK-4722,PAYLOAD,2023-03-02 01:39:31,15.08835807,0.0001865,53.2176,188.6985,84.8475,275.273,-0.0001817,-3.178e-05,0.0,0 STARLINK-4722,1 53775U 22111C   23061.06911022 -.00003178  00000-0 -18170-3 0  9998,2 53775  53.2176 188.6985 0001865  84.8475 275.2730 15.08835807 26272,6917.893,95.438,541.048,538.468,0.0
53775.0,STARLINK-4722,PAYLOAD,2023-03-02 14:22:35,15.08838867,0.0001137,53.2175,186.3222,97.3485,262.7636,1.632e-05,-2.8e-07,0.0,0 STARLINK-4722,1 53775U 22111C   23061.59902271 -.00000028  00000-0  16320-4 0  9998,2 53775  53.2175 186.3222 0001137  97.3485 262.7636 15.08838867 27166,6917.884,95.438,540.535,538.962,0.0
53775.0,STARLINK-4722,PAYLOAD,2023-03-03 11:02:35,15.08838777,0.0001304,53.2161,182.4554,87.6396,272.4745,0.0002095,3.048e-05,0.0,0 STARLINK-4722,1 53775U 22111C   23062.46013540  .00003048  00000-0  20950-3 0  9994,2 53775  53.2161 182.4554 0001304  87.6396 272.4745 15.08838777 26488,6917.884,95.438,540.651,538.847,0.0
53775.0,STARLINK-4722,PAYLOAD,2023-03-03 17:24:07,15.08861321,0.0001798,53.2167,181.2666,105.2497,254.8694,0.00014943,2.092e-05,0.0,0 STARLINK-4722,1 53775U 22111C   23062.72508283  .00002092  00000-0  14943-3 0  9999,2 53775  53.2167 181.2666 0001798 105.2497 254.8694 15.08861321 26524,6917.815,95.436,540.924,538.436,0.0
53775.0,STARLINK-4722,PAYLOAD,2023-03-04 01:21:01,15.08864697,0.0001036,53.2184,179.7806,95.1073,265.0038,0.00028913,4.32e-05,0.0,0 STARLINK-4722,1 53775U 22111C   23063.05626903  .00004320  00000-0  28913-3 0  9994,2 53775  53.2184 179.7806 0001036  95.1073 265.0038 15.08864697 26573,6917.805,95.436,540.387,538.953,0.0
53775.0,STARLINK-4722,PAYLOAD,2023-03-04 10:53:23,15.08833048,0.000123,53.217,177.9967,99.247,260.8661,-4.8991e-05,-1.067e-05,0.0,0 STARLINK-4722,1 53775U 22111C   23063.45374510 -.00001067  00000-0 -48991-4 0  9998,2 53775  53.2170 177.9967 0001230  99.2470 260.8661 15.08833048 27446,6917.902,95.438,540.618,538.916,0.0
53775.0,STARLINK-4722,PAYLOAD,2023-03-04 12:28:46,15.08833516,0.0001189,53.2183,177.6999,108.6065,251.5057,-1.0274e-05,-4.51e-06,0.0,0 STARLINK-4722,1 53775U 22111C   23063.51998406 -.00000451  00000-0 -10274-4 0  9990,2 53775  53.2183 177.6999 0001189 108.6065 251.5057 15.08833516 26647,6917.9,95.438,540.588,538.943,0.0
53775.0,STARLINK-4722,PAYLOAD,2023-03-04 17:14:54,15.08856039,8.48e-05,53.2177,176.8041,122.4444,237.663,3.5887e-05,2.84e-06,0.0,0 STARLINK-4722,1 53775U 22111C   23063.71868672  .00000284  00000-0  35887-4 0  9992,2 53775  53.2177 176.8041 0000848 122.4444 237.6630 15.08856039 26675,6917.831,95.437,540.283,539.11,0.0
53775.0,STARLINK-4722,PAYLOAD,2023-03-05 07:33:24,15.08842319,7.97e-05,53.2185,174.1291,124.0485,236.0582,-0.0003189,-5.36e-05,0.0,0 STARLINK-4722,1 53775U 22111C   23064.31486786 -.00005360  00000-0 -31890-3 0  9992,2 53775  53.2185 174.1291 0000797 124.0485 236.0582 15.08842319 26763,6917.873,95.437,540.29,539.187,0.0
53775.0,STARLINK-4722,PAYLOAD,2023-03-06 05:48:49,15.08817449,7.02e-05,53.2189,169.9664,135.1123,224.9926,-3.6077e-05,-8.61e-06,0.0,0 STARLINK-4722,1 53775U 22111C   23065.24223832 -.00000861  00000-0 -36077-4 0  9990,2 53775  53.2189 169.9664 0000702 135.1123 224.9926 15.08817449 26901,6917.949,95.439,540.3,539.329,0.0
53775.0,STARLINK-4722,PAYLOAD,2023-03-06 10:34:56,15.08846474,6.65e-05,53.218,169.0755,117.056,243.05,-4.1923e-07,-2.94e-06,0.0,0 STARLINK-4722,1 53775U 22111C   23065.44093531 -.00000294  00000-0 -41923-6 0  9991,2 53775  53.2180 169.0755 0000665 117.0560 243.0500 15.08846474 26939,6917.861,95.437,540.186,539.266,0.0
53775.0,STARLINK-4722,PAYLOAD,2023-03-06 16:56:27,15.08865135,4.51e-05,53.2179,167.8825,85.4581,274.6462,0.00012651,1.728e-05,0.0,0 STARLINK-4722,1 53775U 22111C   23065.70587902  .00001728  00000-0  12651-3 0  9994,2 53775  53.2179 167.8825 0000451  85.4581 274.6462 15.08865135 26971,6917.804,95.436,539.981,539.357,0.0
53775.0,STARLINK-4722,PAYLOAD,2023-03-06 23:18:03,15.08832172,5.99e-05,53.2186,166.6957,103.6016,256.5043,-0.0001794,-3.141e-05,0.0,0 STARLINK-4722,1 53775U 22111C   23065.97086981 -.00003141  00000-0 -17940-3 0  9993,2 53775  53.2186 166.6957 0000599 103.6016 256.5043 15.08832172 27016,6917.904,95.438,540.184,539.355,0.0
53775.0,STARLINK-4722,PAYLOAD,2023-03-07 16:47:15,15.08851757,8.17e-05,53.2194,163.4282,103.9545,256.1538,0.00014868,2.08e-05,0.0,0 STARLINK-4722,1 53775U 22111C   23066.69948916  .00002080  00000-0  14868-3 0  9993,2 53775  53.2194 163.4282 0000817 103.9545 256.1538 15.08851757 27121,6917.844,95.437,540.275,539.144,0.0
53775.0,STARLINK-4722,PAYLOAD,2023-03-07 23:08:50,15.08827332,8.79e-05,53.2184,162.2368,124.9146,235.1928,-0.00019815,-3.439e-05,0.0,0 STARLINK-4722,1 53775U 22111C   23066.96447772 -.00003439  00000-0 -19815-3 0  9995,2 53775  53.2184 162.2368 0000879 124.9146 235.1928 15.08827332 27166,6917.919,95.438,540.392,539.176,0.0
53775.0,STARLINK-4722,PAYLOAD,2023-03-08 15:02:40,15.08850758,8.55e-05,53.2182,159.2629,122.2931,237.8144,2.4055e-05,9.5e-07,0.0,0 STARLINK-4722,1 53775U 22111C   23067.62685824  .00000095  00000-0  24055-4 0  9997,2 53775  53.2182 159.2629 0000855 122.2931 237.8144 15.08850758 27265,6917.848,95.437,540.304,539.121,0.0
53775.0,STARLINK-4722,PAYLOAD,2023-03-09 13:18:03,15.08862245,8.94e-05,53.218,155.0989,110.0705,250.0384,0.00019112,2.757e-05,0.0,0 STARLINK-4722,1 53775U 22111C   23068.55420556  .00002757  00000-0  19112-3 0  9993,2 53775  53.2180 155.0989 0000894 110.0705 250.0384 15.08862245 27406,6917.812,95.436,540.296,539.059,0.0
53775.0,STARLINK-4722,PAYLOAD,2023-03-09 22:50:23,15.08838425,8.82e-05,53.219,153.3139,114.1624,245.946,0.00018807,2.707e-05,0.0,0 STARLINK-4722,1 53775U 22111C   23068.95165623  .00002707  00000-0  18807-3 0  9993,2 53775  53.2190 153.3139 0000882 114.1624 245.9460 15.08838425 27464,6917.885,95.438,540.36,539.14,0.0
53775.0,STARLINK-4722,PAYLOAD,2023-03-10 11:33:29,15.0883153,8.06e-05,53.217,150.9357,119.8015,240.3058,6.0314e-05,6.72e-06,0.0,0 STARLINK-4722,1 53775U 22111C   23069.48158631  .00000672  00000-0  60314-4 0  9993,2 53775  53.2170 150.9357 0000806 119.8015 240.3058 15.08831530 27540,6917.906,95.438,540.329,539.214,0.0
53775.0,STARLINK-4722,PAYLOAD,2023-03-11 05:02:44,15.08830737,0.0001607,53.2184,147.6647,96.0896,264.0279,-0.00011316,-2.088e-05,0.0,0 STARLINK-4722,1 53775U 22111C   23070.21023771 -.00002088  00000-0 -11316-3 0  9994,2 53775  53.2184 147.6647 0001607  96.0896 264.0279 15.08830737 27651,6917.909,95.438,540.885,538.662,0.0
53775.0,STARLINK-4722,PAYLOAD,2023-03-11 09:48:54,15.08829428,0.0001553,53.2187,146.7726,95.9699,264.147,-0.00011956,-2.19e-05,0.0,0 STARLINK-4722,1 53775U 22111C   23070.40895943 -.00002190  00000-0 -11956-3 0  9997,2 53775  53.2187 146.7726 0001553  95.9699 264.1470 15.08829428 28493,6917.913,95.438,540.852,538.703,0.0
53775.0,STARLINK-4722,PAYLOAD,2023-03-11 14:35:02,15.08850643,0.0001023,53.2178,145.88,102.4953,257.6154,-0.00015153,-2.699e-05,0.0,0 STARLINK-4722,1 53775U 22111C   23070.60766662 -.00002699  00000-0 -15153-3 0  9991,2 53775  53.2178 145.8800 0001023 102.4953 257.6154 15.08850643 27718,6917.848,95.437,540.421,539.005,0.0
53775.0,STARLINK-4722,PAYLOAD,2023-03-12 08:04:17,15.08829931,0.0001511,53.2182,142.6113,91.5385,268.578,-3.5674e-05,-8.56e-06,0.0,0 STARLINK-4722,1 53775U 22111C   23071.33631781 -.00000856  00000-0 -35674-4 0  9999,2 53775  53.2182 142.6113 0001511  91.5385 268.5780 15.08829931 27828,6917.911,95.438,540.821,538.731,0.0
